[{"OBJECT_NAME":"STARLINK-34796","OBJECT_ID":"2025-176H","EPOCH":"2026-03-09T22:26:58.007040","MEAN_MOTION":15.30197867,"ECCENTRICITY":0.00012549,"INCLINATION":53.16,"RA_OF_ASC_NODE":151.9,"ARG_OF_PERICENTER":87.3886,"MEAN_ANOMALY":272.7258,"EPHEMERIS_TYPE":0,"CLASSIFICATION_TYPE":"U","NORAD_CAT_ID":65205,"ELEMENT_SET_NO":999,"REV_AT_EPOCH":3315,"BSTAR":0.00096194988,"MEAN_MOTION_DOT":0.00028237,"MEAN_MOTION_DDOT":0},{"OBJECT_NAME":"GLOBAL-34","OBJECT_ID":"2026-043A","EPOCH":"2026-03-09T11:23:30.999840","MEAN_MOTION":15.31488019,"ECCENTRICITY":0.00068849,"INCLINATION":42.0215,"RA_OF_ASC_NODE":76.7399,"ARG_OF_PERICENTER":289.2632,"MEAN_ANOMALY":70.746,"EPHEMERIS_TYPE":0,"CLASSIFICATION_TYPE":"U","NORAD_CAT_ID":68098,"ELEMENT_SET_NO":999,"REV_AT_EPOCH":53,"BSTAR":0.00045822046,"MEAN_MOTION_DOT":0.00014018,"MEAN_MOTION_DDOT":0}]
